Subject:
MAJOR BODY #C(500@0)_T(606) (1/1)
From:
Horizons Ephemeris System <horizons@ssd.jpl.nasa.gov>
Date:
Fri, 24 Sep 2004 12:20:51 -0700 (PDT)

 Automated mail xmit by PORT_LOGIN, PID=   16757 Fri Sep 24 12:20:51 2004
++++++++++++++++++++++++++++++++ (part 1 of 1)  +++++++++++++++++++++++++++++++

*******************************************************************************
Ephemeris / PORT_LOGIN Fri Sep 24 12:20:44 2004  Pasadena, USA   / Horizons    
*******************************************************************************
Target body name: Titan (606)                     {source: SAT143}
Center body name: Solar System Barycenter (0)     {source: DE-0406LE-0406}
Center-site name: BODYCENTRIC
*******************************************************************************
Start time      : A.D. 1968-Dec-20 00:00:00.0000 CT 
Stop  time      : A.D. 1968-Dec-29 00:00:00.0000 CT 
Step-size       : 60 minutes
*******************************************************************************
Center geodetic : 0.000000,  0.000000,  0.00000   {E-lon(deg),Lat(deg),Alt(km)}
Center cylindric: 0.00000,     0.000,     0.000   {E-lon(deg),Dxy(km),Dz(km)}
Center radii    : (undefined)                                                  
Output units    : AU-D                                                         
Output format   : 03
Reference frame : ICRF/J2000.0                                                 
Output type     : GEOMETRIC cartesian states
Coordinate systm: Ecliptic and Mean Equinox of Reference Epoch                 
*******************************************************************************
JDCT 
   X     Y     Z
   VX    VY    VZ
   LT    RG    RR
*******************************************************************************
$$SOE
2440213.000000000 = A.D. 1968-Dec-22 12:00:00.0000 (CT)
   8.442709947826334E+00  3.911182419898479E+00 -4.003700764261434E-01
   4.767271904054127E-04  4.152898065225652E-03  1.783911881725181E-04
   5.378896076711269E-02  9.313269854511152E+00  2.168538989960767E-03
2440213.041666667 = A.D. 1968-Dec-22 13:00:00.0000 (CT)
   8.442730131047542E+00  3.911356404066459E+00 -4.003631645134935E-01
   4.919243736311655E-04  4.198392654932508E-03  1.533682300841166E-04
   5.378948672453458E-02  9.313360921215766E+00  2.202555222835525E-03
2440213.083333333 = A.D. 1968-Dec-22 14:00:00.0000 (CT)
   8.442750929557334E+00  3.911532290087597E+00 -4.003572967233862E-01
   5.062599542384039E-04  4.244184925965950E-03  1.282744921329269E-04
   5.379002078970067E-02  9.313453391732780E+00  2.235920080068122E-03
2440213.125000000 = A.D. 1968-Dec-22 15:00:00.0000 (CT)
   8.442772307321087E+00  3.911710090102796E+00 -4.003524758562984E-01
   5.197275122960424E-04  4.290262252208007E-03  1.031171214452275E-04
   5.379056280448954E-02  9.313547238684311E+00  2.268622196565586E-03
2440213.166666667 = A.D. 1968-Dec-22 16:00:00.0000 (CT)
   8.442794228041361E+00  3.911889815723552E+00 -4.003487044136483E-01
   5.323208544248379E-04  4.336611848927551E-03  7.790332509425038E-05
   5.379111260806101E-02  9.313642434221739E+00  2.300650343818932E-03
2440213.208333333 = A.D. 1968-Dec-22 17:00:00.0000 (CT)
   8.442816655167567E+00  3.912071478025443E+00 -4.003459845953726E-01
   5.440340245819791E-04  4.383220777705342E-03  5.264036659479980E-05
   5.379167003689039E-02  9.313738950031651E+00  2.331993441860476E-03
2440213.250000000 = A.D. 1968-Dec-22 18:00:00.0000 (CT)
   8.442839551906046E+00  3.912255087541824E+00 -4.003443182976416E-01
   5.548613131450657E-04  4.430075951032172E-03  2.733556270505058E-05
   5.379223492480555E-02  9.313836757342226E+00  2.362640569527108E-03
2440213.291666667 = A.D. 1968-Dec-22 19:00:00.0000 (CT)
   8.442862881230525E+00  3.912440654257709E+00 -4.003437071107017E-01
   5.647972646523220E-04  4.477164136693215E-03  1.996280449113404E-06
   5.379280710302627E-02  9.313935826930086E+00  2.392580973404277E-03
2440213.333333333 = A.D. 1968-Dec-22 20:00:00.0000 (CT)
   8.442886605892816E+00  3.912628187603830E+00 -4.003441523168455E-01
   5.738366844899694E-04  4.524471962030107E-03 -2.337006570981359E-05
   5.379338640020554E-02  9.314036129127405E+00  2.421804075755925E-03
2440213.375000000 = A.D. 1968-Dec-22 21:00:00.0000 (CT)
   8.442910688433834E+00  3.912817696450867E+00 -4.003456548884850E-01
   5.819746447614964E-04  4.571985918153831E-03 -4.875601660202860E-05
   5.379397264247270E-02  9.314137633829416E+00  2.450299481686301E-03
2440213.416666667 = A.D. 1968-Dec-22 22:00:00.0000 (CT)
   8.442935091194814E+00  3.913009189103872E+00 -4.003482154863520E-01
   5.892064895261287E-04  4.619692364165932E-03 -7.415407103422179E-05
   5.379456565347825E-02  9.314240310502152E+00  2.478056985729562E-03
2440213.458333333 = A.D. 1968-Dec-22 23:00:00.0000 (CT)
   8.442959776328738E+00  3.913202673296845E+00 -4.003518344577969E-01
   5.955278395538950E-04  4.667577531432302E-03 -9.955668845734991E-05
   5.379516525444023E-02  9.314344128190474E+00  2.505066578020893E-03
2440213.500000000 = A.D. 1968-Dec-23 00:00:00.0000 (CT)
   8.442984705811966E+00  3.913398156187509E+00 -4.003565118352078E-01
   6.009345967114263E-04  4.715627527942851E-03 -1.249562916458783E-04
   5.379577126419193E-02  9.314449055526335E+00  2.531318450167781E-03
2440213.541666667 = A.D. 1968-Dec-23 01:00:00.0000 (CT)
   8.443009841456028E+00  3.913595644352259E+00 -4.003622473345398E-01
   6.054229480651252E-04  4.763828342781272E-03 -1.503452694079295E-04
   5.379638349923114E-02  9.314555060737312E+00  2.556803000911019E-03
2440213.583333333 = A.D. 1968-Dec-23 02:00:00.0000 (CT)
   8.443035144919589E+00  3.913795143781306E+00 -4.003690403539519E-01
   6.089893697658140E-04  4.812165850721573E-03 -1.757159793402296E-04
   5.379700177377053E-02  9.314662111655334E+00  2.581510841641208E-03
2440213.625000000 = A.D. 1968-Dec-23 03:00:00.0000 (CT)
   8.443060577720582E+00  3.913996659874010E+00 -4.003768899725708E-01
   6.116306307607021E-04  4.860625816962102E-03 -2.010607506371923E-04
   5.379762589978969E-02  9.314770175725670E+00  2.605432801817259E-03
2440213.666666667 = A.D. 1968-Dec-23 04:00:00.0000 (CT)
   8.443086101248467E+00  3.914200197434415E+00 -4.003857949493629E-01
   6.133437963639157E-04  4.909193902002871E-03 -2.263718869598022E-04
   5.379825568708801E-02  9.314879220016106E+00  2.628559934317953E-03
2440213.708333333 = A.D. 1968-Dec-23 05:00:00.0000 (CT)
   8.443111676776663E+00  3.914405760666993E+00 -4.003957537221334E-01
   6.141262317052945E-04  4.957855666668265E-03 -2.516416693670895E-04
   5.379889094333927E-02  9.314989211226393E+00  2.650883520745450E-03
2440213.750000000 = A.D. 1968-Dec-23 06:00:00.0000 (CT)
   8.443137265475107E+00  3.914613353172595E+00 -4.004067644066450E-01
   6.139756050682654E-04  5.006596577274296E-03 -2.768623593107604E-04
   5.379953147414722E-02  9.315100115697858E+00  2.672395076690308E-03
2440213.791666667 = A.D. 1968-Dec-23 07:00:00.0000 (CT)
   8.443162828422953E+00  3.914822977944625E+00 -4.004188247958658E-01
   6.128898911208190E-04  5.055402010937341E-03 -3.020262016918439E-04
   5.380017708310254E-02  9.315211899423286E+00  2.693086356960340E-03
2440213.833333333 = A.D. 1968-Dec-23 08:00:00.0000 (CT)
   8.443188326621403E+00  3.915034637365438E+00 -4.004319323593447E-01
   6.108673740386688E-04  5.104257261019826E-03 -3.271254279770195E-04
   5.380082757184106E-02  9.315324528056985E+00  2.712949360770562E-03
2440213.875000000 = A.D. 1968-Dec-23 09:00:00.0000 (CT)
   8.443213721006666E+00  3.915248333202960E+00 -4.004460842427161E-01
   6.079066505161455E-04  5.153147542707166E-03 -3.521522593714055E-04
   5.380148274010316E-02  9.315437966925071E+00  2.731976336887724E-03
2440213.916666667 = A.D. 1968-Dec-23 10:00:00.0000 (CT)
   8.443238972463044E+00  3.915464066607559E+00 -4.004612772673398E-01
   6.040066326580523E-04  5.202057998709636E-03 -3.770989100440468E-04
   5.380214238579444E-02  9.315552181035990E+00  2.750159788720530E-03
2440213.958333333 = A.D. 1968-Dec-23 11:00:00.0000 (CT)
   8.443264041836125E+00  3.915681838109137E+00 -4.004775079300769E-01
   5.991665507442582E-04  5.250973705082509E-03 -4.019575904020121E-04
   5.380280630504762E-02  9.315667135091212E+00  2.767492479345178E-03
2440214.000000000 = A.D. 1968-Dec-23 12:00:00.0000 (CT)
   8.443288889946109E+00  3.915901647614476E+00 -4.004947724032001E-01
   5.933859558581379E-04  5.299879677157647E-03 -4.267205104088800E-04
   5.380347429228562E-02  9.315782793496178E+00  2.783967436455215E-03
2440214.041666667 = A.D. 1968-Dec-23 13:00:00.0000 (CT)
   8.443313477601205E+00  3.916123494404844E+00 -4.005130665344487E-01
   5.866647223697696E-04  5.348760875579794E-03 -4.513798829433668E-04
   5.380414614028587E-02  9.315899120371398E+00  2.799577957224504E-03
2440214.083333333 = A.D. 1968-Dec-23 14:00:00.0000 (CT)
   8.443337765611174E+00  3.916347377133829E+00 -4.005323858472151E-01
   5.790030502650508E-04  5.397602212441057E-03 -4.759279271939882E-04
   5.380482164024562E-02  9.316016079563806E+00  2.814317613072451E-03
2440214.125000000 = A.D. 1968-Dec-23 15:00:00.0000 (CT)
   8.443361714800925E+00  3.916573293825455E+00 -4.005527255408837E-01
   5.704014673123676E-04  5.446388557507270E-03 -5.003568720857610E-04
   5.380550058184858E-02  9.316133634658266E+00  2.828180254321200E-03
2440214.166666667 = A.D. 1968-Dec-23 16:00:00.0000 (CT)
   8.443385286024222E+00  3.916801241872550E+00 -4.005740804913083E-01
   5.608608310591250E-04  5.495104744530295E-03 -5.246589597351881E-04
   5.380618275333262E-02  9.316251748989298E+00  2.841160014735213E-03
2440214.208333333 = A.D. 1968-Dec-23 17:00:00.0000 (CT)
   8.443408440177466E+00  3.917031218035373E+00 -4.005964452514298E-01
   5.503823306512214E-04  5.543735577640607E-03 -5.488264489299738E-04
   5.380686794155844E-02  9.316370385652977E+00  2.853251315934547E-03
